start=new Date('2022-01-01T00:00:00.000Z').valueOf();
sats=[{"EPHEMERIS_TYPE":"0","FILE":"3255242","MEAN_MOTION":"15.06396216","CLASSIFICATION_TYPE":"U","RCS_SIZE":"LARGE","MEAN_MOTION_DDOT":"0.0000000000000","ECCENTRICITY":"0.00023250","CENTER_NAME":"EARTH","PERIAPSIS":"545.615","RA_OF_ASC_NODE":"170.9583","SITE":"AFETR","INCLINATION":"53.0536","OBJECT_TYPE":"PAYLOAD","ARG_OF_PERICENTER":"89.9020","REF_FRAME":"TEME","BSTAR":"0.00006731600000","TLE_LINE1":"1 46553U 20070X   21365.60315065  .00000721  00000-0  67316-4 0  9992","GP_ID":"192819451","SEMIMAJOR_AXIS":"6925.360","PERIOD":"95.592","REV_AT_EPOCH":"6945","MEAN_ANOMALY":"270.2235","EPOCH":"2021-12-31T14:28:32.216160","TIME_SYSTEM":"UTC","NORAD_CAT_ID":"46553","MEAN_ELEMENT_THEORY":"SGP4","TLE_LINE2":"2 46553  53.0536 170.9583 0002325  89.9020 270.2235 15.06396216 69454","MEAN_MOTION_DOT":"0.00000721","DECAY_DATE":null,"LAUNCH_DATE":"2020-10-06","OBJECT_ID":"2020-070X","COUNTRY_CODE":"US","ELEMENT_SET_NO":"999","OBJECT_NAME":"STARLINK-1664","APOAPSIS":"548.835"},{"OBJECT_TYPE":"PAYLOAD","REF_FRAME":"TEME","ARG_OF_PERICENTER":"92.7280","SITE":"AFETR","INCLINATION":"53.0533","PERIAPSIS":"545.490","RA_OF_ASC_NODE":"186.3126","CENTER_NAME":"EARTH","CLASSIFICATION_TYPE":"U","ECCENTRICITY":"0.00025240","MEAN_MOTION_DDOT":"0.0000000000000","RCS_SIZE":"LARGE","FILE":"3255242","MEAN_MOTION":"15.06392192","EPHEMERIS_TYPE":"0","APOAPSIS":"548.985","OBJECT_NAME":"STARLINK-1671","COUNTRY_CODE":"US","OBJECT_ID":"2020-070Y","ELEMENT_SET_NO":"999","TLE_LINE2":"2 46554  53.0533 186.3126 0002524  92.7280 267.3998 15.06392192 69235","MEAN_ELEMENT_THEORY":"SGP4","LAUNCH_DATE":"2020-10-06","DECAY_DATE":null,"MEAN_MOTION_DOT":"-0.00000836","NORAD_CAT_ID":"46554","TIME_SYSTEM":"UTC","EPOCH":"2021-12-31T12:33:47.743200","MEAN_ANOMALY":"267.3998","REV_AT_EPOCH":"6923","SEMIMAJOR_AXIS":"6925.372","TLE_LINE1":"1 46554U 20070Y   21365.52346925 -.00000836  00000-0 -37208-4 0  9999","BSTAR":"-0.00003720800000","GP_ID":"192819689","PERIOD":"95.593"},{"SITE":"AFETR","INCLINATION":"53.0532","OBJECT_TYPE":"PAYLOAD","REF_FRAME":"TEME","ARG_OF_PERICENTER":"74.1323","CENTER_NAME":"EARTH","RA_OF_ASC_NODE":"201.3535","PERIAPSIS":"545.659","FILE":"3255242","MEAN_MOTION":"15.06403766","CLASSIFICATION_TYPE":"U","RCS_SIZE":"LARGE","ECCENTRICITY":"0.00022280","MEAN_MOTION_DDOT":"0.0000000000000","EPHEMERIS_TYPE":"0","OBJECT_ID":"2020-070AA","COUNTRY_CODE":"US","ELEMENT_SET_NO":"999","APOAPSIS":"548.745","OBJECT_NAME":"STARLINK-1676","NORAD_CAT_ID":"46556","TLE_LINE2":"2 46556  53.0532 201.3535 0002228  74.1323 285.9912 15.06403766 69020","MEAN_ELEMENT_THEORY":"SGP4","LAUNCH_DATE":"2020-10-06","DECAY_DATE":null,"MEAN_MOTION_DOT":"0.00002056","EPOCH":"2021-12-31T12:23:50.154144","TIME_SYSTEM":"UTC","BSTAR":"0.00015687000000","TLE_LINE1":"1 46556U 20070AA  21365.51655271  .00002056  00000-0  15687-3 0  9997","GP_ID":"192818450","SEMIMAJOR_AXIS":"6925.337","PERIOD":"95.592","REV_AT_EPOCH":"6902","MEAN_ANOMALY":"285.9912"},{"CENTER_NAME":"EARTH","RA_OF_ASC_NODE":"186.1500","PERIAPSIS":"545.539","SITE":"AFETR","INCLINATION":"53.0539","OBJECT_TYPE":"PAYLOAD","REF_FRAME":"TEME","ARG_OF_PERICENTER":"85.5987","EPHEMERIS_TYPE":"0","FILE":"3255242","MEAN_MOTION":"15.06390378","CLASSIFICATION_TYPE":"U","ECCENTRICITY":"0.00024610","MEAN_MOTION_DDOT":"0.0000000000000","RCS_SIZE":"LARGE","NORAD_CAT_ID":"46557","TLE_LINE2":"2 46557  53.0539 186.1500 0002461  85.5987 274.5283 15.06390378 69244","MEAN_ELEMENT_THEORY":"SGP4","DECAY_DATE":null,"MEAN_MOTION_DOT":"-0.00001030","LAUNCH_DATE":"2020-10-06","COUNTRY_CODE":"US","OBJECT_ID":"2020-070AB","ELEMENT_SET_NO":"999","APOAPSIS":"548.947","OBJECT_NAME":"STARLINK-1679","SEMIMAJOR_AXIS":"6925.378","TLE_LINE1":"1 46557U 20070AB  21365.56033297 -.00001030  00000-0 -50220-4 0  9997","BSTAR":"-0.00005022000000","GP_ID":"192818700","PERIOD":"95.593","MEAN_ANOMALY":"274.5283","REV_AT_EPOCH":"6924","EPOCH":"2021-12-31T13:26:52.768608","TIME_SYSTEM":"UTC"},{"MEAN_MOTION":"15.06392185","FILE":"3255242","RCS_SIZE":"LARGE","ECCENTRICITY":"0.00021380","MEAN_MOTION_DDOT":"0.0000000000000","CLASSIFICATION_TYPE":"U","EPHEMERIS_TYPE":"0","INCLINATION":"53.0527","SITE":"AFETR","ARG_OF_PERICENTER":"84.3557","REF_FRAME":"TEME","OBJECT_TYPE":"PAYLOAD","CENTER_NAME":"EARTH","PERIAPSIS":"545.757","RA_OF_ASC_NODE":"186.4103","EPOCH":"2021-12-31T12:01:57.030528","TIME_SYSTEM":"UTC","PERIOD":"95.593","TLE_LINE1":"1 46558U 20070AC  21365.50135452 -.00000279  00000-0  15715-6 0  9993","BSTAR":"0.00000015715000","GP_ID":"192819952","SEMIMAJOR_AXIS":"6925.373","REV_AT_EPOCH":"6920","MEAN_ANOMALY":"275.7675","ELEMENT_SET_NO":"999","OBJECT_ID":"2020-070AC","COUNTRY_CODE":"US","OBJECT_NAME":"STARLINK-1680","APOAPSIS":"548.718","NORAD_CAT_ID":"46558","DECAY_DATE":null,"LAUNCH_DATE":"2020-10-06","MEAN_MOTION_DOT":"-0.00000279","MEAN_ELEMENT_THEORY":"SGP4","TLE_LINE2":"2 46558  53.0527 186.4103 0002138  84.3557 275.7675 15.06392185 69207"},{"MEAN_MOTION":"15.06400564","FILE":"3255242","ECCENTRICITY":"0.00022510","MEAN_MOTION_DDOT":"0.0000000000000","RCS_SIZE":"LARGE","CLASSIFICATION_TYPE":"U","EPHEMERIS_TYPE":"0","INCLINATION":"53.0536","SITE":"AFETR","ARG_OF_PERICENTER":"93.1207","REF_FRAME":"TEME","OBJECT_TYPE":"PAYLOAD","CENTER_NAME":"EARTH","RA_OF_ASC_NODE":"170.8650","PERIAPSIS":"545.653","EPOCH":"2021-12-31T14:56:26.143584","TIME_SYSTEM":"UTC","PERIOD":"95.592","SEMIMAJOR_AXIS":"6925.347","TLE_LINE1":"1 46559U 20070AD  21365.62252481  .00000299  00000-0  39001-4 0  9992","GP_ID":"192820190","BSTAR":"0.00003900100000","MEAN_ANOMALY":"267.0039","REV_AT_EPOCH":"6945","ELEMENT_SET_NO":"999","COUNTRY_CODE":"US","OBJECT_ID":"2020-070AD","APOAPSIS":"548.771","OBJECT_NAME":"STARLINK-1681","NORAD_CAT_ID":"46559","LAUNCH_DATE":"2020-10-06","DECAY_DATE":null,"MEAN_MOTION_DOT":"0.00000299","TLE_LINE2":"2 46559  53.0536 170.8650 0002251  93.1207 267.0039 15.06400564 69454","MEAN_ELEMENT_THEORY":"SGP4"},{"TLE_LINE2":"2 46560  53.0523 186.0535 0002150  84.8816 275.2419 15.06408615 69249","MEAN_ELEMENT_THEORY":"SGP4","DECAY_DATE":null,"LAUNCH_DATE":"2020-10-06","MEAN_MOTION_DOT":"-0.00003177","NORAD_CAT_ID":"46560","OBJECT_NAME":"STARLINK-1706","APOAPSIS":"548.676","OBJECT_ID":"2020-070AE","COUNTRY_CODE":"US","ELEMENT_SET_NO":"999","REV_AT_EPOCH":"6924","MEAN_ANOMALY":"275.2419","TLE_LINE1":"1 46560U 20070AE  21365.58243776 -.00003177  00000-0 -19442-3 0  9992","BSTAR":"-0.00019442000000","GP_ID":"192818951","SEMIMAJOR_AXIS":"6925.322","PERIOD":"95.592","TIME_SYSTEM":"UTC","EPOCH":"2021-12-31T13:58:42.622464","RA_OF_ASC_NODE":"186.0535","PERIAPSIS":"545.698","CENTER_NAME":"EARTH","OBJECT_TYPE":"PAYLOAD","ARG_OF_PERICENTER":"84.8816","REF_FRAME":"TEME","SITE":"AFETR","INCLINATION":"53.0523","EPHEMERIS_TYPE":"0","CLASSIFICATION_TYPE":"U","RCS_SIZE":"LARGE","MEAN_MOTION_DDOT":"0.0000000000000","ECCENTRICITY":"0.00021500","FILE":"3255242","MEAN_MOTION":"15.06408615"},{"MEAN_ANOMALY":"274.3745","REV_AT_EPOCH":"6923","PERIOD":"95.592","SEMIMAJOR_AXIS":"6925.345","GP_ID":"192819201","TLE_LINE1":"1 46561U 20070AF  21365.53083312  .00000333  00000-0  41296-4 0  9998","BSTAR":"0.00004129600000","TIME_SYSTEM":"UTC","EPOCH":"2021-12-31T12:44:23.981568","LAUNCH_DATE":"2020-10-06","DECAY_DATE":null,"MEAN_MOTION_DOT":"0.00000333","MEAN_ELEMENT_THEORY":"SGP4","TLE_LINE2":"2 46561  53.0542 186.2883 0002384  85.7516 274.3745 15.06401022 69231","NORAD_CAT_ID":"46561","APOAPSIS":"548.861","OBJECT_NAME":"STARLINK-1709","ELEMENT_SET_NO":"999","COUNTRY_CODE":"US","OBJECT_ID":"2020-070AF","EPHEMERIS_TYPE":"0","ECCENTRICITY":"0.00023840","MEAN_MOTION_DDOT":"0.0000000000000","RCS_SIZE":"LARGE","CLASSIFICATION_TYPE":"U","MEAN_MOTION":"15.06401022","FILE":"3255242","RA_OF_ASC_NODE":"186.2883","PERIAPSIS":"545.559","CENTER_NAME":"EARTH","REF_FRAME":"TEME","ARG_OF_PERICENTER":"85.7516","OBJECT_TYPE":"PAYLOAD","INCLINATION":"53.0542","SITE":"AFETR"},{"REF_FRAME":"TEME","ARG_OF_PERICENTER":"85.1569","OBJECT_TYPE":"PAYLOAD","INCLINATION":"53.0541","SITE":"AFETR","RA_OF_ASC_NODE":"181.2739","PERIAPSIS":"545.386","CENTER_NAME":"EARTH","MEAN_MOTION_DDOT":"0.0000000000000","ECCENTRICITY":"0.00026530","RCS_SIZE":"LARGE","CLASSIFICATION_TYPE":"U","MEAN_MOTION":"15.06396977","FILE":"3255242","EPHEMERIS_TYPE":"0","APOAPSIS":"549.060","OBJECT_NAME":"STARLINK-1714","ELEMENT_SET_NO":"999","COUNTRY_CODE":"US","OBJECT_ID":"2020-070AG","DECAY_DATE":null,"LAUNCH_DATE":"2020-10-06","MEAN_MOTION_DOT":"0.00001501","TLE_LINE2":"2 46562  53.0541 181.2739 0002653  85.1569 274.9723 15.06396977 69309","MEAN_ELEMENT_THEORY":"SGP4","NORAD_CAT_ID":"46562","TIME_SYSTEM":"UTC","EPOCH":"2021-12-31T12:47:43.935360","MEAN_ANOMALY":"274.9723","REV_AT_EPOCH":"6930","PERIOD":"95.592","SEMIMAJOR_AXIS":"6925.358","BSTAR":"0.00011970000000","TLE_LINE1":"1 46562U 20070AG  21365.53314740  .00001501  00000-0  11970-3 0  9994","GP_ID":"192819452"},{"EPHEMERIS_TYPE":"0","FILE":"3255242","MEAN_MOTION":"15.06408079","CLASSIFICATION_TYPE":"U","RCS_SIZE":"LARGE","ECCENTRICITY":"0.00020790","MEAN_MOTION_DDOT":"0.0000000000000","CENTER_NAME":"EARTH","RA_OF_ASC_NODE":"181.0405","PERIAPSIS":"545.749","SITE":"AFETR","INCLINATION":"53.0534","OBJECT_TYPE":"PAYLOAD","ARG_OF_PERICENTER":"81.6069","REF_FRAME":"TEME","BSTAR":"-0.00002542200000","TLE_LINE1":"1 46563U 20070AH  21365.58106183 -.00000661  00000-0 -25422-4 0  9996","GP_ID":"192819690","SEMIMAJOR_AXIS":"6925.324","PERIOD":"95.592","REV_AT_EPOCH":"6931","MEAN_ANOMALY":"278.5156","EPOCH":"2021-12-31T13:56:43.742112","TIME_SYSTEM":"UTC","NORAD_CAT_ID":"46563","MEAN_ELEMENT_THEORY":"SGP4","TLE_LINE2":"2 46563  53.0534 181.0405 0002079  81.6069 278.5156 15.06408079 69316","DECAY_DATE":null,"MEAN_MOTION_DOT":"-0.00000661","LAUNCH_DATE":"2020-10-06","OBJECT_ID":"2020-070AH","COUNTRY_CODE":"US","ELEMENT_SET_NO":"999","APOAPSIS":"548.629","OBJECT_NAME":"STARLINK-1730"}];
